satname,norad_id,inclination_deg,eccentricity,mean_motion_rev_per_day,perigee_km,apogee_km,l1,l2
STARLINK-1458,45675,53.0519,0.0006439,15.42808886,433.43504819258214,442.212642569265,1 45675U 20035U   26065.30991607  .00106278  00000+0  23646-2 0  9997,2 45675  53.0519  71.5455 0006439  64.6135 295.5536 15.42808886318339
STARLINK-1460,45676,53.1454,7.38e-05,15.27143826,483.84901681257725,484.86192070096513,1 45676U 20035V   26065.83334490  .00861536  00000+0  29737-1 0  9998,2 45676  53.1454  78.1449 0000738 101.8603 172.3623 15.27143826  5819
STARLINK-1392,45677,53.1559,0.0001175,15.29329107,477.01105829603057,478.62220739974964,1 45677U 20035W   26065.83334490  .00056717  00000+0  19645-2 0  9994,2 45677  53.1559  78.0144 0001175  91.2864 194.3339 15.29329107  5711
STARLINK-1394,45679,53.05,0.0002579,15.49081934,417.6573745962587,421.1635495772034,1 45679U 20035Y   26065.32741600  .00059072  00000+0  10705-2 0  9990,2 45679  53.0500  52.6837 0002579 108.8068 251.3219 15.49081934318639
STARLINK-1402,45685,53.048,5.79e-05,15.44202477,433.3280374632013,434.1168507868315,1 45685U 20035AE  26065.35469741  .00089054  00000+0  18972-2 0  9990,2 45685  53.0480  39.2647 0000579 213.9128 146.1841 15.44202477318832
STARLINK-1404,45686,53.1601,0.0001243,15.30183744,474.4117296393697,476.11548503035283,1 45686U 20035AF  26065.29951596  .00000159  00000+0  17488-4 0  9990,2 45686  53.1601  65.4443 0001243 113.9384 246.1747 15.30183744318450
STARLINK-1413,45689,53.1612,0.0001255,15.30180858,474.41212171908955,476.1323274344577,1 45689U 20035AJ  26065.37113095 -.00000728  00000+0 -12475-4 0  9991,2 45689  53.1612  64.9923 0001255  94.8643 265.2501 15.30180858318385
STARLINK-1417,45693,53.0522,0.0002093,15.12306158,527.7232721521386,530.6146704317216,1 45693U 20035AN  26065.42603881  .00038623  00000+0  22100-2 0  9996,2 45693  53.0522  69.0992 0002093 226.1808 133.9011 15.12306158318408
STARLINK-1420,45695,53.054,0.0003955,15.52935485,405.47658657541797,410.8445479511229,1 45695U 20035AQ  26065.83334490  .00150520  00000+0  23396-2 0  9999,2 45695  53.0540  36.1889 0003955  94.4667 189.6736 15.52935485  5946
STARLINK-1422,45696,53.1611,0.0001278,15.30190379,474.3679340758936,476.11965820738806,1 45696U 20035AR  26065.83570651 -.00000692  00000+0 -11260-4 0  9996,2 45696  53.1611  62.8381 0001278 100.8067 259.3078 15.30190379318539
STARLINK-1351,45697,53.0529,0.0003396,15.51699643,409.45751000031123,414.069210324933,1 45697U 20035AS  26065.83334490  .00136569  00000+0  22238-2 0  9992,2 45697  53.0529  35.3716 0003396 111.2285 315.6304 15.51699643  5931
STARLINK-1398,45699,53.0359,0.0003899,15.93297207,290.46216431736957,295.6643662842516,1 45699U 20035AU  26065.83334490  .00260006  36899-4  72344-3 0  9992,2 45699  53.0359 313.8379 0003899 165.1566 265.1285 15.93297207  5934
STARLINK-1400,45700,53.0519,0.0007727,15.49873108,411.84626188354196,422.3476164131007,1 45700U 20035AV  26065.78689652  .00121521  00000+0  21146-2 0  9993,2 45700  53.0519  36.8921 0007727  82.0782 278.1102 15.49873108318896
STARLINK-1403,45701,53.0849,0.0002083,15.13888814,522.916300016027,525.7918778036674,1 45701U 20035AW  26065.83334490  .01246096  00000+0  63003-1 0  9990,2 45701  53.0849  49.3406 0002083  79.5726  39.1083 15.13888814  5672
STARLINK-1407,45703,53.0358,0.0011164,15.58866246,383.3801696139144,398.4941584073167,1 45703U 20035AY  26064.98148963  .00137455  00000+0  17158-2 0  9993,2 45703  53.0358 333.8148 0011164  92.2755 267.9535 15.58866246319717
STARLINK-1411,45706,53.0455,0.000553,15.61426432,379.7966802304936,387.2750904416762,1 45706U 20035BB  26065.83334490  .00046601  00000+0  53853-3 0  9998,2 45706  53.0455 355.3874 0005530 118.4271 351.6403 15.61426432  5975
STARLINK-1423,45710,53.0521,0.0007406,15.52029856,405.7723505002796,415.82812433634444,1 45710U 20035BF  26065.30844637  .00123713  00000+0  19933-2 0  9994,2 45710  53.0521  38.2972 0007406  93.3774 266.8082 15.52029856318823
STARLINK-1433,45711,53.0512,0.0007319,15.54207724,399.49247590801315,409.4208365019649,1 45711U 20035BG  26065.83334490  .00149646  00000+0  22199-2 0  9995,2 45711  53.0512  34.8535 0007319  89.7583 165.8533 15.54207724  5894
STARLINK-1434,45712,53.0571,0.0005222,15.2633493,483.1949580534538,490.36467717777214,1 45712U 20035BH  26065.29516401  .00066332  00000+0  25102-2 0  9997,2 45712  53.0571  35.7531 0005222  75.7601 284.3976 15.26334930318875
STARLINK-1465,45731,53.052,0.0002697,15.49426058,416.5709178568659,420.23697204257314,1 45731U 20038B   26065.80735742  .00113086  00000+0  20035-2 0  9998,2 45731  53.0520 236.9863 0002697 240.0195 120.0545 15.49426058315931
STARLINK-1471,45735,53.0464,0.0001017,15.48690369,419.86476412750835,421.24761832260447,1 45735U 20038F   26065.54892237  .00031330  00000+0  58149-3 0  9995,2 45735  53.0464 157.0696 0001017 220.3925 139.7007 15.48690369317047
STARLINK-1480,45741,53.0514,0.0007423,15.47322405,419.51303728261064,429.6123252294028,1 45741U 20038M   26064.72639027  .00078440  00000+0  15035-2 0  9996,2 45741  53.0514 236.1997 0007423 164.4132 195.7105 15.47322405315869
STARLINK-1500,45744,53.0368,0.0002058,15.34588868,460.7342128770024,463.54967168964595,1 45744U 20038Q   26065.81230390  .00036856  00000+0  10899-2 0  9998,2 45744  53.0368 206.2475 0002058 227.6652 132.4175 15.34588868316371
STARLINK-1504,45746,53.0232,0.0001245,15.52909588,407.39111112566206,409.0809180062888,1 45746U 20038S   26065.40472085  .00034802  00000+0  55523-3 0  9997,2 45746  53.0232 158.0317 0001245 180.0211 180.0798 15.52909588317009
STARLINK-1506,45747,53.0757,0.0002956,15.26002069,485.74849555061246,489.807624534109,1 45747U 20038T   26065.77868061  .00028307  00000+0  10954-2 0  9992,2 45747  53.0757 215.8293 0002956 215.1730 144.9073 15.26002069316242
STARLINK-1464,45751,53.0519,0.0002221,15.43388301,434.6044052372654,437.6312972421856,1 45751U 20038X   26064.81234486  .00090072  00000+0  19719-2 0  9995,2 45751  53.0519 223.0554 0002221 215.3375 144.7483 15.43388301316053
STARLINK-1477,45754,53.0503,9.77e-05,15.14128399,522.9516331255581,524.3002376031272,1 45754U 20038AA  26064.87103340  .00026759  00000+0  14626-2 0  9991,2 45754  53.0503 230.3177 0000977  42.5231 317.5837 15.14128399315956
STARLINK-1478,45755,53.0516,0.0003646,15.54363252,401.53144037721995,406.4769777468682,1 45755U 20038AB  26065.83334490  .00176881  00000+0  26007-2 0  9999,2 45755  53.0516 211.6935 0003646 220.4595 299.2738 15.54363252  5945
STARLINK-1484,45756,52.9981,0.0006567,16.00394115,268.95846279387297,277.6944949270073,1 45756U 20038AC  26065.83775096  .00449064  98362-4  83957-3 0  9998,2 45756  52.9981  71.3542 0006567  52.6869 307.4757 16.00394115318246
STARLINK-1493,45759,53.0535,0.0001446,15.49619782,416.8547938784668,418.8201897014933,1 45759U 20038AF  26065.80603303  .00117050  00000+0  20584-2 0  9999,2 45759  53.0535 218.3350 0001446  55.1604 304.9539 15.49619782316196
STARLINK-1494,45760,53.0476,0.0005026,15.73073477,346.73729913436455,353.5005419857116,1 45760U 20038AG  26065.83334490  .00121572  00000+0  86218-3 0  9993,2 45760  53.0476 165.8170 0005026 352.0621  30.6921 15.73073477  5953
STARLINK-1502,45764,53.0517,0.0001696,15.46497129,425.82845580830235,428.1367523780109,1 45764U 20038AL  26065.45594221  .00104069  00000+0  20446-2 0  9997,2 45764  53.0517 221.4847 0001696  12.6757 347.4291 15.46497129316139
STARLINK-1470,45772,53.0495,7.69e-05,15.27739622,482.0435835058588,483.0987604227075,1 45772U 20038AU  26065.59996512  .00072354  00000+0  26215-2 0  9991,2 45772  53.0495 188.6590 0000769  20.1695 339.9334 15.27739622316609
STARLINK-1482,45773,53.1576,0.0001598,15.30185474,474.1632691885061,476.3536143716992,1 45773U 20038AV  26065.80715539  .00002900  00000+0  11004-3 0  9995,2 45773  53.1576 204.4066 0001598 100.4887 259.6293 15.30185474316406
STARLINK-1496,45780,53.052,0.0003528,15.47408468,421.91054266458195,426.71034958256587,1 45780U 20038BC  26065.00002315  .00062572  00000+0  12008-2 0  9991,2 45780  53.0520 195.4686 0003528 203.7017  11.5935 15.47408468  5891
STARLINK-1513,45786,53.1611,0.0001421,15.30191153,474.26762001118095,476.2153501766443,1 45786U 20038BJ  26065.81665563  .00000948  00000+0  44148-4 0  9997,2 45786  53.1611 204.4944 0001421  91.7969 268.3195 15.30191153316402
STARLINK-1522,46027,53.0686,0.000158,15.08940765,538.3424313702071,540.5283842510753,1 46027U 20055A   26065.63505737 -.00015811  00000+0 -97467-3 0  9999,2 46027  53.0686 140.2554 0001580  46.9498 313.1625 15.08940765308427
STARLINK-1523,46028,53.089,1.63e-05,15.15165173,520.3647070850266,520.589601906463,1 46028U 20055B   26065.83334490  .00047994  00000+0  25277-2 0  9992,2 46028  53.0890 139.2523 0000163 128.3478 205.6298 15.15165173  5771
STARLINK-1526,46029,53.0908,6.09e-05,15.15524245,518.9673966404907,519.8075151192179,1 46029U 20055C   26065.83334490  .00046725  00000+0  24369-2 0  9995,2 46029  53.0908 139.2258 0000609  45.4340 342.5534 15.15524245  5772
STARLINK-1555,46032,53.0858,0.000124,15.14560697,521.4569129665588,523.1682244596004,1 46032U 20055F   26065.83334490  .00035144  00000+0  18905-2 0  9991,2 46032  53.0858 139.2933 0001240  63.7076   7.7352 15.14560697  5779
STARLINK-1556,46033,53.0907,0.0001885,15.15120753,519.3115744240367,521.9124027927419,1 46033U 20055G   26065.83334490  .00971497  00000+0  47760-1 0  9992,2 46033  53.0907 139.2461 0001885  82.0959 115.2371 15.15120753  5727
STARLINK-1557,46034,53.0947,0.0001805,15.16002874,516.6908578213561,519.1803400295685,1 46034U 20055H   26065.83334490  .00958238  00000+0  45422-1 0  9994,2 46034  53.0947 139.1980 0001805  86.5941 117.3523 15.16002874  5725
STARLINK-1558,46035,53.0857,0.0001809,15.13961245,522.885313488956,525.3825551129858,1 46035U 20055J   26065.83334490  .01135538  00000+0  56971-1 0  9997,2 46035  53.0857 139.3116 0001809  63.6038  37.8000 15.13961245  5624
